0 SL-8 R/B
1 12682U 81077B   13281.51072470  .00000133  00000-0  11583-3 0  5616
2 12682 082.9148 304.0253 0034963 161.6655 003.0644 13.78413097617199
0 SL-8 R/B
1 12682U 81077B   13282.52682017  .00000166  00000-0  14865-3 0  5625
2 12682 082.9146 303.2653 0035012 158.8953 005.1437 13.78413680617334
0 SL-8 R/B
1 12682U 81077B   13283.68313955  .00000165  00000-0  14719-3 0  5633
2 12682 082.9144 302.4002 0035044 155.7363 343.0511 13.78413950617491
0 SL-8 R/B
1 12682U 81077B   13286.51920275  .00000135  00000-0  11767-3 0  5656
2 12682 082.9140 300.2786 0035171 147.9938 016.2095 13.78414662617884
0 SL-8 R/B
1 12682U 81077B   13287.52427278  .00000128  00000-0  11031-3 0  5660
2 12682 082.9139 299.5266 0035233 145.2588 323.5771 13.78414989618020
0 SL-8 R/B
1 12682U 81077B   13288.55010441  .00000130  00000-0  11241-3 0  5671
2 12682 082.9139 298.7590 0035275 142.4700 013.9670 13.78415352618160
0 SL-8 R/B
1 12682U 81077B   13290.58122994  .00000117  00000-0  99879-4 0  5684
2 12682 082.9141 297.2392 0035371 136.9700 012.8167 13.78415913618445
0 SL-8 R/B
1 12682U 81077B   13292.61160240  .00000133  00000-0  11608-3 0  5698
2 12682 082.9144 295.7199 0035414 131.4208 007.9848 13.78416130618721
0 SL-8 R/B
1 12682U 81077B   13294.64374848  .00000150  00000-0  13226-3 0  5703
2 12682 082.9145 294.1996 0035489 125.9770 011.8466 13.78416486619000
